*******************************************************************************
Ephemeris / WWW_USER Mon Mar 10 07:20:30 2025 Pasadena, USA      / Horizons    
*******************************************************************************
Target body name: (2018 PC20)                     {source: JPL#4}
Center body name: Earth (399)                     {source: DE441}
Center-site name: Mauna Kea
*******************************************************************************
Start time      : A.D. 2018-Dec-31 04:03:00.0000 UT      
Stop  time      : A.D. 2018-Dec-31 16:46:00.0000 UT      
Step-size       : 1 minutes
*******************************************************************************
Target pole/equ : undefined
Target radii    : undefined                                                    
Center geodetic : 204.5278, 19.8260847, 4.21024   {E-lon(deg),Lat(deg),Alt(km)}
Center cylindric: 204.5278, 6006.35451, 2151.0229 {E-lon(deg),Dxy(km),Dz(km)}
Center pole/equ : ITRF93                          {East-longitude positive}
Center radii    : 6378.137, 6378.137, 6356.752 km {Equator_a, b, pole_c}       
Target primary  : Sun
Vis. interferer : MOON (R_eq= 1737.400) km        {source: DE441}
Rel. light bend : Sun                             {source: DE441}
Rel. lght bnd GM: 1.3271E+11 km^3/s^2                                          
Small-body perts: Yes                             {source: SB441-N16}
Atmos refraction: NO (AIRLESS)
RA format       : HMS
Time format     : CAL 
Calendar mode   : Mixed Julian/Gregorian
RTS-only print  : NO       
EOP file        : eop.250307.p250603                                           
EOP coverage    : DATA-BASED 1962-JAN-20 TO 2025-MAR-07. PREDICTS-> 2025-JUN-02
Units conversion: 1 au= 149597870.700 km, c= 299792.458 km/s, 1 day= 86400.0 s 
Table cut-offs 1: Elevation (-90.0deg=NO ),Airmass (>38.000=NO), Daylight (YES)
Table cut-offs 2: Solar elongation (  0.0,180.0=NO ),Local Hour Angle( 0.0=NO )
Table cut-offs 3: RA/DEC angular rate (     0.0=NO )                           
*******************************************************************************
Initial IAU76/J2000 heliocentric ecliptic osculating elements (au, days, deg.):
  EPOCH=  2458343.5 ! 2018-Aug-13.00 (TDB)         Residual RMS= .24519        
   EC= .404352607301711    QR= 1.018354806317198   TP= 2458318.6524357731      
   OM= 139.299704166656    W=  153.5303944744985   IN= 8.986086735514593       
  Equivalent ICRF heliocentric cartesian coordinates (au, au/d):
   X= 8.116079301925467E-01  Y=-6.140581064636024E-01  Z=-2.698058679324596E-01
  VX= 1.436448164656351E-02 VY= 1.329561442287599E-02 VZ= 2.429594529488231E-03
Asteroid physical parameters (km, seconds, rotational period in hours):        
   GM= n.a.                RAD= n.a.               ROTPER= n.a.                
   H= 25.2                 G= .150                 B-V= n.a.                   
                           ALBEDO= n.a.            STYP= n.a.                  
*******************************************************************************
 Date__(UT)__HR:MN     R.A._________(ICRF)_________DEC
******************************************************
$$SOE
 2018-Dec-31 06:06     01 26 12.789937 -03 51 29.15556
 2018-Dec-31 06:07     01 26 12.845385 -03 51 28.52347
 2018-Dec-31 06:08     01 26 12.900836 -03 51 27.89137
 2018-Dec-31 06:09     01 26 12.956289 -03 51 27.25927
 2018-Dec-31 06:10     01 26 13.011744 -03 51 26.62716
 2018-Dec-31 06:11     01 26 13.067201 -03 51 25.99505
 2018-Dec-31 06:12     01 26 13.122661 -03 51 25.36293
 2018-Dec-31 06:13     01 26 13.178123 -03 51 24.73081
 2018-Dec-31 06:14     01 26 13.233587 -03 51 24.09868
 2018-Dec-31 06:15     01 26 13.289054 -03 51 23.46654
 2018-Dec-31 06:16     01 26 13.344523 -03 51 22.83440
 2018-Dec-31 06:17     01 26 13.399995 -03 51 22.20226
 2018-Dec-31 06:18     01 26 13.455469 -03 51 21.57011
 2018-Dec-31 06:19     01 26 13.510946 -03 51 20.93795
 2018-Dec-31 06:20     01 26 13.566426 -03 51 20.30579
 2018-Dec-31 06:21     01 26 13.621908 -03 51 19.67362
 2018-Dec-31 06:22     01 26 13.677392 -03 51 19.04145
 2018-Dec-31 06:23     01 26 13.732880 -03 51 18.40927
 2018-Dec-31 06:24     01 26 13.788370 -03 51 17.77708
 2018-Dec-31 06:25     01 26 13.843863 -03 51 17.14489
 2018-Dec-31 06:26     01 26 13.899358 -03 51 16.51270
 2018-Dec-31 06:27     01 26 13.954857 -03 51 15.88050
 2018-Dec-31 06:28     01 26 14.010358 -03 51 15.24829
 2018-Dec-31 06:29     01 26 14.065862 -03 51 14.61608
 2018-Dec-31 06:30     01 26 14.121369 -03 51 13.98386
 2018-Dec-31 06:31     01 26 14.176879 -03 51 13.35164
 2018-Dec-31 06:32     01 26 14.232392 -03 51 12.71941
 2018-Dec-31 06:33     01 26 14.287908 -03 51 12.08718
 2018-Dec-31 06:34     01 26 14.343427 -03 51 11.45494
 2018-Dec-31 06:35     01 26 14.398950 -03 51 10.82270
 2018-Dec-31 06:36     01 26 14.454475 -03 51 10.19045
 2018-Dec-31 06:37     01 26 14.510003 -03 51 09.55819
 2018-Dec-31 06:38     01 26 14.565535 -03 51 08.92593
 2018-Dec-31 06:39     01 26 14.621070 -03 51 08.29367
 2018-Dec-31 06:40     01 26 14.676608 -03 51 07.66140
 2018-Dec-31 06:41     01 26 14.732149 -03 51 07.02912
 2018-Dec-31 06:42     01 26 14.787693 -03 51 06.39684
 2018-Dec-31 06:43     01 26 14.843241 -03 51 05.76456
 2018-Dec-31 06:44     01 26 14.898793 -03 51 05.13226
 2018-Dec-31 06:45     01 26 14.954347 -03 51 04.49997
 2018-Dec-31 06:46     01 26 15.009905 -03 51 03.86767
 2018-Dec-31 06:47     01 26 15.065467 -03 51 03.23536
 2018-Dec-31 06:48     01 26 15.121032 -03 51 02.60305
 2018-Dec-31 06:49     01 26 15.176600 -03 51 01.97073
 2018-Dec-31 06:50     01 26 15.232173 -03 51 01.33841
 2018-Dec-31 06:51     01 26 15.287748 -03 51 00.70608
 2018-Dec-31 06:52     01 26 15.343328 -03 51 00.07375
 2018-Dec-31 06:53     01 26 15.398910 -03 50 59.44141
 2018-Dec-31 06:54     01 26 15.454497 -03 50 58.80907
 2018-Dec-31 06:55     01 26 15.510087 -03 50 58.17672
 2018-Dec-31 06:56     01 26 15.565681 -03 50 57.54437
 2018-Dec-31 06:57     01 26 15.621279 -03 50 56.91201
 2018-Dec-31 06:58     01 26 15.676881 -03 50 56.27965
 2018-Dec-31 06:59     01 26 15.732486 -03 50 55.64728
 2018-Dec-31 07:00     01 26 15.788096 -03 50 55.01491
 2018-Dec-31 07:01     01 26 15.843709 -03 50 54.38253
 2018-Dec-31 07:02     01 26 15.899326 -03 50 53.75015
 2018-Dec-31 07:03     01 26 15.954947 -03 50 53.11776
 2018-Dec-31 07:04     01 26 16.010572 -03 50 52.48537
 2018-Dec-31 07:05     01 26 16.066201 -03 50 51.85297
 2018-Dec-31 07:06     01 26 16.121834 -03 50 51.22057
 2018-Dec-31 07:07     01 26 16.177472 -03 50 50.58816
 2018-Dec-31 07:08     01 26 16.233113 -03 50 49.95575
 2018-Dec-31 07:09     01 26 16.288758 -03 50 49.32334
 2018-Dec-31 07:10     01 26 16.344408 -03 50 48.69091
 2018-Dec-31 07:11     01 26 16.400062 -03 50 48.05849
 2018-Dec-31 07:12     01 26 16.455720 -03 50 47.42606
 2018-Dec-31 07:13     01 26 16.511382 -03 50 46.79362
 2018-Dec-31 07:14     01 26 16.567049 -03 50 46.16118
 2018-Dec-31 07:15     01 26 16.622720 -03 50 45.52874
 2018-Dec-31 07:16     01 26 16.678395 -03 50 44.89629
 2018-Dec-31 07:17     01 26 16.734075 -03 50 44.26383
 2018-Dec-31 07:18     01 26 16.789759 -03 50 43.63137
 2018-Dec-31 07:19     01 26 16.845447 -03 50 42.99891
 2018-Dec-31 07:20     01 26 16.901140 -03 50 42.36644
 2018-Dec-31 07:21     01 26 16.956837 -03 50 41.73397
 2018-Dec-31 07:22     01 26 17.012539 -03 50 41.10149
 2018-Dec-31 07:23     01 26 17.068246 -03 50 40.46901
 2018-Dec-31 07:24     01 26 17.123957 -03 50 39.83652
 2018-Dec-31 07:25     01 26 17.179672 -03 50 39.20403
 2018-Dec-31 07:26     01 26 17.235393 -03 50 38.57153
 2018-Dec-31 07:27     01 26 17.291117 -03 50 37.93903
 2018-Dec-31 07:28     01 26 17.346847 -03 50 37.30653
 2018-Dec-31 07:29     01 26 17.402581 -03 50 36.67402
 2018-Dec-31 07:30     01 26 17.458320 -03 50 36.04151
 2018-Dec-31 07:31     01 26 17.514064 -03 50 35.40899
 2018-Dec-31 07:32     01 26 17.569813 -03 50 34.77647
 2018-Dec-31 07:33     01 26 17.625567 -03 50 34.14394
 2018-Dec-31 07:34     01 26 17.681325 -03 50 33.51141
 2018-Dec-31 07:35     01 26 17.737088 -03 50 32.87887
 2018-Dec-31 07:36     01 26 17.792856 -03 50 32.24633
 2018-Dec-31 07:37     01 26 17.848629 -03 50 31.61379
 2018-Dec-31 07:38     01 26 17.904407 -03 50 30.98124
 2018-Dec-31 07:39     01 26 17.960191 -03 50 30.34869
 2018-Dec-31 07:40     01 26 18.015979 -03 50 29.71613
 2018-Dec-31 07:41     01 26 18.071772 -03 50 29.08357
 2018-Dec-31 07:42     01 26 18.127570 -03 50 28.45101
 2018-Dec-31 07:43     01 26 18.183373 -03 50 27.81844
 2018-Dec-31 07:44     01 26 18.239182 -03 50 27.18586
 2018-Dec-31 07:45     01 26 18.294995 -03 50 26.55329
 2018-Dec-31 07:46     01 26 18.350814 -03 50 25.92070
 2018-Dec-31 07:47     01 26 18.406638 -03 50 25.28812
 2018-Dec-31 07:48     01 26 18.462468 -03 50 24.65553
 2018-Dec-31 07:49     01 26 18.518302 -03 50 24.02294
 2018-Dec-31 07:50     01 26 18.574142 -03 50 23.39034
 2018-Dec-31 07:51     01 26 18.629987 -03 50 22.75774
 2018-Dec-31 07:52     01 26 18.685838 -03 50 22.12513
 2018-Dec-31 07:53     01 26 18.741694 -03 50 21.49252
 2018-Dec-31 07:54     01 26 18.797555 -03 50 20.85991
 2018-Dec-31 07:55     01 26 18.853422 -03 50 20.22729
 2018-Dec-31 07:56     01 26 18.909294 -03 50 19.59467
 2018-Dec-31 07:57     01 26 18.965172 -03 50 18.96204
 2018-Dec-31 07:58     01 26 19.021055 -03 50 18.32941
 2018-Dec-31 07:59     01 26 19.076943 -03 50 17.69678
 2018-Dec-31 08:00     01 26 19.132838 -03 50 17.06415
 2018-Dec-31 08:01     01 26 19.188737 -03 50 16.43151
 2018-Dec-31 08:02     01 26 19.244643 -03 50 15.79886
 2018-Dec-31 08:03     01 26 19.300554 -03 50 15.16621
 2018-Dec-31 08:04     01 26 19.356471 -03 50 14.53356
 2018-Dec-31 08:05     01 26 19.412393 -03 50 13.90091
 2018-Dec-31 08:06     01 26 19.468321 -03 50 13.26825
 2018-Dec-31 08:07     01 26 19.524255 -03 50 12.63559
 2018-Dec-31 08:08     01 26 19.580195 -03 50 12.00292
